STARLINK-31274          
1 59078U 24041E   26068.05546825  .00000563  00000+0  29958-4 0  9997
2 59078  43.0034 314.3613 0000824 276.4508  83.6250 15.27581829114178
2025-313BD              
1 67299U 25313BD  26068.62968741  .00081010  00000+0  27634-2 0  9995
2 67299  97.3970 145.2850 0007287 333.4514  26.6352 15.30002360 10838
