[{"OBJECT_NAME":"STARLINK-31274","OBJECT_ID":"2024-041E","EPOCH":"2026-03-09T01:19:52.456800","MEAN_MOTION":15.27581829,"ECCENTRICITY":8.245e-5,"INCLINATION":43.0034,"RA_OF_ASC_NODE":314.3613,"ARG_OF_PERICENTER":276.4508,"MEAN_ANOMALY":83.625,"EPHEMERIS_TYPE":0,"CLASSIFICATION_TYPE":"U","NORAD_CAT_ID":59078,"ELEMENT_SET_NO":999,"REV_AT_EPOCH":11417,"BSTAR":2.995798e-5,"MEAN_MOTION_DOT":5.63e-6,"MEAN_MOTION_DDOT":0},{"OBJECT_NAME":"OBJECT BD","OBJECT_ID":"2025-313BD","EPOCH":"2026-03-09T15:06:44.992224","MEAN_MOTION":15.3000236,"ECCENTRICITY":0.00072867,"INCLINATION":97.397,"RA_OF_ASC_NODE":145.285,"ARG_OF_PERICENTER":333.4514,"MEAN_ANOMALY":26.6352,"EPHEMERIS_TYPE":0,"CLASSIFICATION_TYPE":"U","NORAD_CAT_ID":67299,"ELEMENT_SET_NO":999,"REV_AT_EPOCH":1083,"BSTAR":0.0027633805,"MEAN_MOTION_DOT":0.0008101,"MEAN_MOTION_DDOT":0}]
